ORBCOMM FM33 [-]        
1 25983U 99065D   24108.41522659  .00003953  00000+0  13529-2 0  9996
2 25983  45.0275 219.3570 0007083  87.0533  25.2384 14.37545014274745
ORBCOMM FM36 [-]        
1 25984U 99065E   24108.95584564  .00003232  00000+0  11635-2 0  9995
2 25984  45.0400 301.9129 0002927 318.4763  41.5862 14.35419125273856
ORBCOMM FM35 [+]        
1 25985U 99065F   24107.94698455  .00002264  00000+0  83645-3 0  9994
2 25985  45.0403 309.2463 0003209  69.6043 290.5149 14.35022990273519
ORBCOMM FM34 [-]        
1 25986U 99065G   24107.98647972  .00002426  00000+0  89338-3 0  9992
2 25986  45.0396 309.5900 0003364  11.0372 349.0549 14.34986495273633
ORBCOMM FM38 [-]        
1 33060U 08031A   24108.97780565  .00005285  00000+0  76446-3 0  9995
2 33060  48.4400 175.4969 0005447   8.1599 351.9403 14.77327305851780
ORBCOMM FM41 [-]        
1 33061U 08031B   24108.36436446  .00005831  00000+0  84583-3 0  9993
2 33061  48.4434 184.9677 0004856 349.3639 125.3115 14.77054782851203
ORBCOMM FM29 [-]        
1 33062U 08031C   24108.35184866  .00006235  00000+0  90382-3 0  9992
2 33062  48.4384 193.0610 0006602 351.0791 124.5181 14.76979900851117
ORBCOMM FM39 [-]        
1 33063U 08031D   24108.41548901  .00004409  00000+0  66249-3 0  9990
2 33063  48.4399 213.1038 0007749 328.4138  31.6310 14.76008405850820
